NORAD_CAT_ID,OBJECT_NAME,OBJECT_TYPE,EPOCH,MEAN_MOTION,ECCENTRICITY,INCLINATION,RA_OF_ASC_NODE,ARG_OF_PERICENTER,MEAN_ANOMALY,BSTAR,MEAN_MOTION_DOT,MEAN_MOTION_DDOT,TLE_LINE0,TLE_LINE1,TLE_LINE2,SEMIMAJOR_AXIS,PERIOD,APOGEE,PERIGEE,DECAYED
49144.0,STARLINK-3100,PAYLOAD,2023-07-04 03:10:39,14.98331839,0.0003552,69.9991,244.2566,269.2191,90.8561,2.8151e-05,2.43e-06,0.0,0 STARLINK-3100,1 49144U 21082Q   23185.13239860  .00000243  00000-0  28151-4 0  9996,2 49144  69.9991 244.2566 0003552 269.2191  90.8561 14.98331839 99254,6950.187,96.107,574.521,569.583,0.0
49144.0,STARLINK-3100,PAYLOAD,2023-07-05 09:37:12,14.98333965,0.0003595,69.999,241.0586,268.4584,91.6163,-8.2793e-06,-1.92e-06,0.0,0 STARLINK-3100,1 49144U 21082Q   23186.40083561 -.00000192  00000-0 -82793-5 0  9990,2 49144  69.9990 241.0586 0003595 268.4584  91.6163 14.98333965 99444,6950.181,96.107,574.544,569.547,0.0
49144.0,STARLINK-3100,PAYLOAD,2023-07-06 12:51:29,14.9832821,0.0003683,69.9988,238.1971,268.3517,91.722,5.7811e-05,5.97e-06,0.0,0 STARLINK-3100,1 49144U 21082Q   23187.53575827  .00000597  00000-0  57811-4 0  9995,2 49144  69.9988 238.1971 0003683 268.3517  91.7220 14.98328210 99610,6950.198,96.107,574.623,569.504,0.0
49144.0,STARLINK-3100,PAYLOAD,2023-07-07 12:53:30,14.98335097,0.0003731,69.9986,235.6723,269.6667,90.4065,0.00010133,1.116e-05,0.0,0 STARLINK-3100,1 49144U 21082Q   23188.53715305  .00001116  00000-0  10133-3 0  9996,2 49144  69.9986 235.6723 0003731 269.6667  90.4065 14.98335097 99769,6950.177,96.107,574.635,569.449,0.0
49144.0,STARLINK-3100,PAYLOAD,2023-07-08 12:55:31,14.98331977,0.0003752,69.9985,233.1469,269.3981,90.6748,6.3946e-05,6.7e-06,0.0,0 STARLINK-3100,1 49144U 21082Q   23189.53855473  .00000670  00000-0  63946-4 0  9993,2 49144  69.9985 233.1469 0003752 269.3981  90.6748 14.98331977 99917,6950.187,96.107,574.659,569.444,0.0
49144.0,STARLINK-3100,PAYLOAD,2023-07-09 03:20:44,14.98324472,0.0003645,69.9987,231.6319,269.4892,90.5849,-7.7874e-05,-1.022e-05,0.0,0 STARLINK-3100,1 49144U 21082Q   23190.13940421 -.00001022  00000-0 -77874-4 0  9998,2 49144  69.9987 231.6319 0003645 269.4892  90.5849 14.98324472100005,6950.21,96.107,574.608,569.542,0.0
49144.0,STARLINK-3100,PAYLOAD,2023-07-10 03:22:45,14.98322445,0.000375,69.9985,229.1072,269.6619,90.411,-2.0364e-05,-3.36e-06,0.0,0 STARLINK-3100,1 49144U 21082Q   23191.14080871 -.00000336  00000-0 -20364-4 0  9993,2 49144  69.9985 229.1072 0003750 269.6619  90.4110 14.98322445100151,6950.216,96.107,574.688,569.475,0.0
49144.0,STARLINK-3100,PAYLOAD,2023-07-11 03:24:47,14.98319362,0.0003833,69.998,226.5821,269.0218,91.0502,0.00012651,1.416e-05,0.0,0 STARLINK-3100,1 49144U 21082Q   23192.14221199  .00001416  00000-0  12651-3 0  9991,2 49144  69.9980 226.5821 0003833 269.0218  91.0502 14.98319362100303,6950.226,96.108,574.755,569.427,0.0
49144.0,STARLINK-3100,PAYLOAD,2023-07-12 08:15:12,14.98330958,0.0003821,69.9981,223.5525,267.3879,92.6842,0.00012285,1.373e-05,0.0,0 STARLINK-3100,1 49144U 21082Q   23193.34388982  .00001373  00000-0  12285-3 0  9993,2 49144  69.9981 223.5525 0003821 267.3879  92.6842 14.98330958100480,6950.19,96.107,574.711,569.399,0.0
49144.0,STARLINK-3100,PAYLOAD,2023-07-13 11:29:28,14.98340053,0.0003829,69.9983,220.6908,267.3373,92.7348,0.00012994,1.458e-05,0.0,0 STARLINK-3100,1 49144U 21082Q   23194.47880082  .00001458  00000-0  12994-3 0  9997,2 49144  69.9983 220.6908 0003829 267.3373  92.7348 14.98340053100650,6950.162,96.106,574.688,569.366,0.0
49144.0,STARLINK-3100,PAYLOAD,2023-07-14 11:31:29,14.98334873,0.0003843,69.9985,218.166,267.1546,92.9173,1.4084e-06,-7.6e-07,0.0,0 STARLINK-3100,1 49144U 21082Q   23195.48020148 -.00000076  00000-0  14084-5 0  9998,2 49144  69.9985 218.1660 0003843 267.1546  92.9173 14.98334873100803,6950.178,96.107,574.714,569.372,0.0
49144.0,STARLINK-3100,PAYLOAD,2023-07-15 11:33:29,14.983397,0.0003851,69.9983,215.6407,267.2852,92.7867,-1.5651e-06,-1.12e-06,0.0,0 STARLINK-3100,1 49144U 21082Q   23196.48159325 -.00000112  00000-0 -15651-5 0  9992,2 49144  69.9983 215.6407 0003851 267.2852  92.7867 14.98339700100950,6950.163,96.106,574.704,569.351,0.0
49144.0,STARLINK-3100,PAYLOAD,2023-07-16 18:00:02,14.98332833,0.0003737,69.9986,212.4424,268.2229,91.8502,5.0042e-05,5.04e-06,0.0,0 STARLINK-3100,1 49144U 21082Q   23197.75003193  .00000504  00000-0  50042-4 0  9999,2 49144  69.9986 212.4424 0003737 268.2229  91.8502 14.98332833101147,6950.184,96.107,574.646,569.452,0.0
49144.0,STARLINK-3100,PAYLOAD,2023-07-17 18:02:03,14.98333322,0.0003767,69.9986,209.9178,266.3566,93.7162,2.5467e-05,2.11e-06,0.0,0 STARLINK-3100,1 49144U 21082Q   23198.75143013  .00000211  00000-0  25467-4 0  9994,2 49144  69.9986 209.9178 0003767 266.3566  93.7162 14.98333322101293,6950.183,96.107,574.666,569.429,0.0
49144.0,STARLINK-3100,PAYLOAD,2023-07-19 02:04:44,14.98329168,0.000375,69.9987,206.5516,265.719,94.354,1.0867e-05,3.7e-07,0.0,0 STARLINK-3100,1 49144U 21082Q   23200.08663128  .00000037  00000-0  10867-4 0  9992,2 49144  69.9987 206.5516 0003750 265.7190  94.3540 14.98329168101493,6950.195,96.107,574.667,569.454,0.0
49144.0,STARLINK-3100,PAYLOAD,2023-07-20 10:07:25,14.98339263,0.0003604,69.9989,203.1852,264.2808,95.794,-9.7828e-05,-1.26e-05,0.0,0 STARLINK-3100,1 49144U 21082Q   23201.42182748 -.00001260  00000-0 -97828-4 0  9998,2 49144  69.9989 203.1852 0003604 264.2808  95.7940 14.98339263101697,6950.164,96.106,574.534,569.524,0.0
49144.0,STARLINK-3100,PAYLOAD,2023-07-24 11:51:37,14.98332572,0.0003715,69.9988,192.9173,265.9478,94.1256,6.1786e-05,6.44e-06,0.0,0 STARLINK-3100,1 49144U 21082Q   23205.49418512  .00000644  00000-0  61786-4 0  9997,2 49144  69.9988 192.9173 0003715 265.9478  94.1256 14.98332572102309,6950.185,96.107,574.632,569.468,0.0
49144.0,STARLINK-3100,PAYLOAD,2023-07-25 13:29:46,14.98330256,0.0003705,69.9989,190.2243,266.6339,93.4397,3.6987e-05,3.48e-06,0.0,0 STARLINK-3100,1 49144U 21082Q   23206.56234794  .00000348  00000-0  36987-4 0  9990,2 49144  69.9989 190.2243 0003705 266.6339  93.4397 14.98330256102464,6950.192,96.107,574.632,569.482,0.0
49144.0,STARLINK-3100,PAYLOAD,2023-07-26 13:31:47,14.98333721,0.0003692,69.999,187.6995,266.468,93.6057,4.8831e-05,4.9e-06,0.0,0 STARLINK-3100,1 49144U 21082Q   23207.56374453  .00000490  00000-0  48831-4 0  9997,2 49144  69.9990 187.6995 0003692 266.4680  93.6057 14.98333721102614,6950.181,96.107,574.612,569.48,0.0
49144.0,STARLINK-3100,PAYLOAD,2023-07-26 18:20:11,14.98332121,0.0003674,69.9991,187.1945,266.39,93.6838,1.9545e-05,1.4e-06,0.0,0 STARLINK-3100,1 49144U 21082Q   23207.76402594  .00000140  00000-0  19545-4 0  9999,2 49144  69.9991 187.1945 0003674 266.3900  93.6838 14.98332121102642,6950.186,96.107,574.605,569.498,0.0
49144.0,STARLINK-3100,PAYLOAD,2023-07-26 23:08:35,14.98332057,0.0003667,69.999,186.6896,266.224,93.85,7.6687e-05,8.22e-06,0.0,0 STARLINK-3100,1 49144U 21082Q   23207.96430446  .00000822  00000-0  76687-4 0  9995,2 49144  69.9990 186.6896 0003667 266.2240  93.8500 14.98332057102677,6950.187,96.107,574.6,569.503,0.0
49144.0,STARLINK-3100,PAYLOAD,2023-07-27 13:33:48,14.983364,0.0003643,69.9991,185.1746,266.2648,93.8094,0.00010888,1.207e-05,0.0,0 STARLINK-3100,1 49144U 21082Q   23208.56513959  .00001207  00000-0  10888-3 0  9991,2 49144  69.9991 185.1746 0003643 266.2648  93.8094 14.98336400102766,6950.173,96.107,574.57,569.506,0.0
49144.0,STARLINK-3100,PAYLOAD,2023-07-27 21:34:29,14.98326089,0.0003618,69.9992,184.3332,266.1812,93.8933,-2.4658e-05,-3.87e-06,0.0,0 STARLINK-3100,1 49144U 21082Q   23208.89894986 -.00000387  00000-0 -24658-4 0  9990,2 49144  69.9992 184.3332 0003618 266.1812  93.8933 14.98326089102813,6950.205,96.107,574.585,569.555,0.0
49144.0,STARLINK-3100,PAYLOAD,2023-07-28 02:22:53,14.98327658,0.0003613,69.9992,183.8282,266.0788,93.9958,-1.8834e-05,-3.18e-06,0.0,0 STARLINK-3100,1 49144U 21082Q   23209.09922896 -.00000318  00000-0 -18834-4 0  9998,2 49144  69.9992 183.8282 0003613 266.0788  93.9958 14.98327658102841,6950.2,96.107,574.576,569.554,0.0
49144.0,STARLINK-3100,PAYLOAD,2023-07-28 10:23:33,14.98329846,0.0003613,69.9992,182.9866,266.3961,93.6785,-5.2845e-06,-1.56e-06,0.0,0 STARLINK-3100,1 49144U 21082Q   23209.43302743 -.00000156  00000-0 -52845-5 0  9990,2 49144  69.9992 182.9866 0003613 266.3961  93.6785 14.98329846102896,6950.193,96.107,574.569,569.547,0.0
49144.0,STARLINK-3100,PAYLOAD,2023-07-29 02:24:54,14.98331158,0.0003587,69.9993,181.3034,267.2619,92.8129,2.0122e-05,1.47e-06,0.0,0 STARLINK-3100,1 49144U 21082Q   23210.10062599  .00000147  00000-0  20122-4 0  9998,2 49144  69.9993 181.3034 0003587 267.2619  92.8129 14.98331158102990,6950.189,96.107,574.547,569.561,0.0
49144.0,STARLINK-3100,PAYLOAD,2023-07-30 02:26:54,14.98328794,0.0003508,69.9995,178.7788,267.521,92.5547,0.0001047,1.156e-05,0.0,0 STARLINK-3100,1 49144U 21082Q   23211.10202543  .00001156  00000-0  10470-3 0  9999,2 49144  69.9995 178.7788 0003508 267.5210  92.5547 14.98328794103142,6950.197,96.107,574.5,569.623,0.0
49144.0,STARLINK-3100,PAYLOAD,2023-07-31 02:28:56,14.98329789,0.0003388,69.9999,176.2546,266.7314,93.3457,5.6674e-06,-2.5e-07,0.0,0 STARLINK-3100,1 49144U 21082Q   23212.10342708 -.00000025  00000-0  56674-5 0  9991,2 49144  69.9999 176.2546 0003388 266.7314  93.3457 14.98329789103293,6950.194,96.107,574.413,569.704,0.0
49144.0,STARLINK-3100,PAYLOAD,2023-08-01 02:30:57,14.98329151,0.0003394,69.9998,173.7297,268.0357,92.0413,1.0798e-05,3.6e-07,0.0,0 STARLINK-3100,1 49144U 21082Q   23213.10482709  .00000036  00000-0  10798-4 0  9995,2 49144  69.9998 173.7297 0003394 268.0357  92.0413 14.98329151103444,6950.196,96.107,574.419,569.702,0.0
49144.0,STARLINK-3100,PAYLOAD,2023-08-02 00:56:49,14.98340084,0.0003798,69.9997,171.3733,281.5233,78.5499,0.00019094,2.187e-05,0.0,0 STARLINK-3100,1 49144U 21082Q   23214.03945661  .00002187  00000-0  19094-3 0  9995,2 49144  69.9997 171.3733 0003798 281.5233  78.5499 14.98340084103589,6950.162,96.106,574.666,569.387,0.0
